COMMENT,ORIGINATOR,NORAD_CAT_ID,OBJECT_NAME,OBJECT_TYPE,CLASSIFICATION_TYPE,INTLDES,EPOCH,EPOCH_MICROSECONDS,MEAN_MOTION,ECCENTRICITY,INCLINATION,RA_OF_ASC_NODE,ARG_OF_PERICENTER,MEAN_ANOMALY,EPHEMERIS_TYPE,ELEMENT_SET_NO,REV_AT_EPOCH,BSTAR,MEAN_MOTION_DOT,MEAN_MOTION_DDOT,FILE,TLE_LINE0,TLE_LINE1,TLE_LINE2,OBJECT_ID,OBJECT_NUMBER,SEMIMAJOR_AXIS,PERIOD,APOGEE,PERIGEE,DECAYED
"GENERATED VIA SPACETRACK.ORG API","18 SPCS","49174","STARLINK-3047","PAYLOAD","U","21082AW","2023-10-11 12:30:35","482464","15.0000849","0.0002788","70","333.1813","307.2435","52.847","0","999","11581","0.0008516","0.00010535","0","4031093","0 STARLINK-3047","1 49174U 21082AW  23284.52124401  .00010535  00000-0  85160-3 0  9993","2 49174  70.0000 333.1813 0002788 307.2435  52.8470 15.00008490115814","2021-082AW","49174","6945.007","95.999","568.808","564.936","0"
"GENERATED VIA SPACETRACK.ORG API","18 SPCS","49146","STARLINK-3116","PAYLOAD","U","21082S","2023-10-11 13:48:27","273888","14.98333011","0.0002803","70","333.5435","270.6034","89.4804","0","999","11579","0.000023613","0.00000189","0","4031093","0 STARLINK-3116","1 49146U 21082S   23284.57531567  .00000189  00000-0  23613-4 0  9992","2 49146  70.0000 333.5435 0002803 270.6034  89.4804 14.98333011115793","2021-082S","49146","6950.184","96.107","573.997","570.100","0"
"GENERATED VIA SPACETRACK.ORG API","18 SPCS","49143","STARLINK-3109","PAYLOAD","U","21082P","2023-10-11 13:54:28","15488","14.98329893","0.0002793","70","333.5331","265.7061","94.3778","0","999","11575","-0.000019299","-0.00000323","0","4031093","0 STARLINK-3109","1 49143U 21082P   23284.57949092 -.00000323  00000-0 -19299-4 0  9992","2 49143  70.0000 333.5331 0002793 265.7061  94.3778 14.98329893115752","2021-082P","49143","6950.193","96.107","573.999","570.117","0"
"GENERATED VIA SPACETRACK.ORG API","18 SPCS","55421","STARLINK-5598","PAYLOAD","U","23014AG","2023-10-11 14:24:20","359296","14.98325921","0.0002554","70","143.4648","261.085","99.002","0","999","3973","0.000043392","0.00000425","0","4031093","0 STARLINK-5598","1 55421U 23014AG  23284.60023564  .00000425  00000-0  43392-4 0  9998","2 55421  70.0000 143.4648 0002554 261.0850  99.0020 14.98325921 39730","2023-014AG","55421","6950.206","96.107","573.846","570.295","0"
"GENERATED VIA SPACETRACK.ORG API","18 SPCS","55637","STARLINK-5062","PAYLOAD","U","23021K","2023-10-11 15:02:05","236800","14.9830391","0.0002687","70","243.5167","277.3908","82.6946","0","999","3666","0.00031853","0.00003707","0","4031379","0 STARLINK-5062","1 55637U 23021K   23284.62644950  .00003707  00000-0  31853-3 0  9999","2 55637  70.0000 243.5167 0002687 277.3908  82.6946 14.98303910 36666","2023-021K","55637","6950.274","96.109","574.006","570.271","0"
"GENERATED VIA SPACETRACK.ORG API","18 SPCS","55293","STARLINK-5287","PAYLOAD","U","23010AA","2023-10-11 18:05:38","683680","14.98328487","0.0002923","70","83.0761","270.7396","89.3428","0","999","4116","-0.000028498","-0.00000433","0","4031351","0 STARLINK-5287","1 55293U 23010AA  23284.75391995 -.00000433  00000-0 -28498-4 0  9994","2 55293  70.0000  83.0761 0002923 270.7396  89.3428 14.98328487 41168","2023-010AA","55293","6950.198","96.107","574.094","570.031","0"
"GENERATED VIA SPACETRACK.ORG API","18 SPCS","55315","STARLINK-4623","PAYLOAD","U","23010AY","2023-10-11 18:11:39","234336","14.98329226","0.0003002","70","83.0903","270.2875","89.794","0","999","4116","-0.000018247","-0.00000311","0","4031187","0 STARLINK-4623","1 55315U 23010AY  23284.75809299 -.00000311  00000-0 -18247-4 0  9996","2 55315  70.0000  83.0903 0003002 270.2875  89.7940 14.98329226 41162","2023-010AY","55315","6950.195","96.107","574.147","569.974","0"
"GENERATED VIA SPACETRACK.ORG API","18 SPCS","55413","STARLINK-5060","PAYLOAD","U","23014Y","2023-10-11 18:30:40","326048","14.98326001","0.0002848","70","142.8573","273.2622","86.8212","0","999","3882","0.0000039731","-0.00000046","0","4031223","0 STARLINK-5060","1 55413U 23014Y   23284.77130007 -.00000046  00000-0  39731-5 0  9991","2 55413  70.0000 142.8573 0002848 273.2622  86.8212 14.98326001 38825","2023-014Y","55413","6950.205","96.107","574.050","570.091","0"
"GENERATED VIA SPACETRACK.ORG API","18 SPCS","56496","STARLINK-5526","PAYLOAD","U","23064BA","2023-10-11 18:42:51","583680","15.69919901","0.0002946","70","172.1513","272.9422","87.1437","0","999","2455","0.000025004","0.00002794","0","4031315","0 STARLINK-5526","1 56496U 23064BA  23284.77976370  .00002794  00000-0  25004-4 0  9997","2 56496  70.0000 172.1513 0002946 272.9422  87.1437 15.69919901 24554","2023-064BA","56496","6737.263","91.724","361.113","357.143","0"
"GENERATED VIA SPACETRACK.ORG API","18 SPCS","55414","STARLINK-5620","PAYLOAD","U","23014Z","2023-10-11 18:54:42","844032","14.98324746","0.0002861","70","142.9156","269.7202","90.3629","0","999","3976","-0.00001788","-0.00000306","0","4031223","0 STARLINK-5620","1 55414U 23014Z   23284.78799588 -.00000306  00000-0 -17880-4 0  9998","2 55414  70.0000 142.9156 0002861 269.7202  90.3629 14.98324746 39763","2023-014Z","55414","6950.209","96.107","574.063","570.086","0"
"GENERATED VIA SPACETRACK.ORG API","18 SPCS","56485","STARLINK-6210","PAYLOAD","U","23064AP","2023-10-11 19:01:23","206080","14.98321391","0.0002695","70","182.8087","272.0494","88.0357","0","999","2430","0.000080891","0.00000872","0","4031326","0 STARLINK-6210","1 56485U 23064AP  23284.79262970  .00000872  00000-0  80891-4 0  9991","2 56485  70.0000 182.8087 0002695 272.0494  88.0357 14.98321391 24302","2023-064AP","56485","6950.220","96.108","573.958","570.211","0"
"GENERATED VIA SPACETRACK.ORG API","18 SPCS","55419","STARLINK-5629","PAYLOAD","U","23014AE","2023-10-11 23:49:07","972032","14.98309826","0.0002754","70","142.4254","259.9888","100.0961","0","999","3885","0.00028392","0.00003295","0","4031477","0 STARLINK-5629","1 55419U 23014AE  23284.99245338  .00003295  00000-0  28392-3 0  9992","2 55419  70.0000 142.4254 0002754 259.9888 100.0961 14.98309826 38853","2023-014AE","55419","6950.255","96.108","574.034","570.206","0"
"GENERATED VIA SPACETRACK.ORG API","18 SPCS","55432","STARLINK-5637","PAYLOAD","U","23014AT","2023-10-12 02:01:39","94464","14.98331422","0.0002947","70","162.2044","264.9334","95.1488","0","999","3837","0.00012796","0.00001434","0","4031471","0 STARLINK-5637","1 55432U 23014AT  23285.08448026  .00001434  00000-0  12796-3 0  9991","2 55432  70.0000 162.2044 0002947 264.9334  95.1488 14.98331422 38373","2023-014AT","55432","6950.188","96.107","574.102","570.005","0"
"GENERATED VIA SPACETRACK.ORG API","18 SPCS","55432","STARLINK-5637","PAYLOAD","U","23014AT","2023-10-12 02:01:39","94464","14.98331422","0.0002947","70","162.2044","264.9334","95.1488","0","999","3931","0.00012796","0.00001434","0","4031907","0 STARLINK-5637","1 55432U 23014AT  23285.08448026  .00001434  00000-0  12796-3 0  9991","2 55432  70.0000 162.2044 0002947 264.9334  95.1488 14.98331422 39318","2023-014AT","55432","6950.188","96.107","574.102","570.005","0"
"GENERATED VIA SPACETRACK.ORG API","18 SPCS","56487","STARLINK-6196","PAYLOAD","U","23064AR","2023-10-12 02:22:40","865376","15.6991637","0.000309","70","171.2612","264.0659","96.0185","0","999","2460","-0.000039145","-0.00004915","0","4031613","0 STARLINK-6196","1 56487U 23064AR  23285.09908409 -.00004915  00000-0 -39145-4 0  9991","2 56487  70.0000 171.2612 0003090 264.0659  96.0185 15.69916370 24601","2023-064AR","56487","6737.273","91.725","361.220","357.056","0"
"GENERATED VIA SPACETRACK.ORG API","18 SPCS","56487","STARLINK-6196","PAYLOAD","U","23064AR","2023-10-12 02:22:40","865376","15.6991637","0.000309","70","171.2612","264.0659","96.0185","0","999","2425","-0.000039145","-0.00004915","0","4031907","0 STARLINK-6196","1 56487U 23064AR  23285.09908409 -.00004915  00000-0 -39145-4 0  9991","2 56487  70.0000 171.2612 0003090 264.0659  96.0185 15.69916370 24252","2023-064AR","56487","6737.273","91.725","361.220","357.056","0"
"GENERATED VIA SPACETRACK.ORG API","18 SPCS","56472","STARLINK-5038","PAYLOAD","U","23064AA","2023-10-12 02:32:18","457152","14.986447","0.0002852","70","182.3","261.9471","98.1365","0","999","2434","-0.0047337","-0.0005658","0","4031648","0 STARLINK-5038","1 56472U 23064AA  23285.10576918 -.00056580  00000-0 -47337-2 0  9998","2 56472  70.0000 182.3000 0002852 261.9471  98.1365 14.98644700 24342","2023-064AA","56472","6949.220","96.087","573.067","569.103","0"
"GENERATED VIA SPACETRACK.ORG API","18 SPCS","56474","STARLINK-5524","PAYLOAD","U","23064AC","2023-10-12 02:50:27","98880","14.98743376","0.0003019","70","182.3441","269.7753","90.306","0","999","2434","-0.0053549","-0.00064089","0","4031648","0 STARLINK-5524","1 56474U 23064AC  23285.11836920 -.00064089  00000-0 -53549-2 0  9998","2 56474  70.0000 182.3441 0003019 269.7753  90.3060 14.98743376 24343","2023-064AC","56474","6948.915","96.080","572.878","568.682","0"
"GENERATED VIA SPACETRACK.ORG API","18 SPCS","56481","STARLINK-6222","PAYLOAD","U","23064AK","2023-10-12 03:20:05","187552","14.98335319","0.0002722","70","182.0123","268.5736","91.5111","0","999","2435","-0.000036301","-0.00000526","0","4031595","0 STARLINK-6222","1 56481U 23064AK  23285.13894893 -.00000526  00000-0 -36301-4 0  9996","2 56481  70.0000 182.0123 0002722 268.5736  91.5111 14.98335319 24358","2023-064AK","56481","6950.176","96.107","573.933","570.150","0"
"GENERATED VIA SPACETRACK.ORG API","18 SPCS","56481","STARLINK-6222","PAYLOAD","U","23064AK","2023-10-12 03:20:05","187552","14.98335319","0.0002722","70","182.0123","268.5736","91.5111","0","999","2399","-0.000036301","-0.00000526","0","4031907","0 STARLINK-6222","1 56481U 23064AK  23285.13894893 -.00000526  00000-0 -36301-4 0  9996","2 56481  70.0000 182.0123 0002722 268.5736  91.5111 14.98335319 23997","2023-064AK","56481","6950.176","96.107","573.933","570.150","0"
